STARLINK-1834
1 26781C 20074AU  21325.12361232 -.00001674  00000-0 -11212-3 0  3255
2 26781  53.0514 167.6801 0001929  84.0858 145.4617 15.06403946    16
